ONEWEB-0588             
1 55153U 23004P   24276.46479232  .00000120  00000+0  27116-3 0  9998
2 55153  87.9055  99.4524 0001837  70.5061 289.6270 13.18686550 87626
ONEWEB-0598             
1 55154U 23004Q   24276.34971714 -.00000195  00000+0 -58466-3 0  9994
2 55154  87.8936 145.1529 0002311  75.4237 284.7147 13.11417023 84261
ONEWEB-0599             
1 55155U 23004R   24276.34832003 -.00000848  00000+0 -22176-2 0  9995
2 55155  87.9109 129.9305 0001804  84.7503 275.3834 13.17653625 85460
ONEWEB-0614             
1 55156U 23004S   24276.34463387  .00000109  00000+0  27041-3 0  9996
2 55156  87.8939 145.1592 0001388  66.5753 293.5520 13.11415955 84202
ONEWEB-0616             
1 55157U 23004T   24276.31457107  .00000205  00000+0  49439-3 0  9999
2 55157  87.9104 129.9402 0002184 113.5509 246.5852 13.17648624 85670
ONEWEB-0617             
1 55158U 23004U   24276.33277440  .00000511  00000+0  14058-2 0  9990
2 55158  87.8935 145.1527 0001613  62.0315 298.0976 13.11415905 84226
ONEWEB-0618             
1 55159U 23004V   24276.40083670  .00009360  00000+0  38207-2 0  9992
2 55159  86.9063  55.2718 0011303 301.7210  58.2880 14.27211431 90634
ONEWEB-0619             
1 55160U 23004W   24276.34664396  .00000056  00000+0  11005-3 0  9998
2 55160  87.9106 129.9111 0001110  88.4447 271.6811 13.17650247 85579
