<?xml version="1.0" encoding="UTF-8"?>
<ndm xmlns:xsi="http://www.w3.org/2001/XMLSchema-instance" xsi:noNamespaceSchemaLocation="https://sanaregistry.org/r/ndmxml_unqualified/ndmxml-2.0.0-master-2.0.xsd">
<omm id="CCSDS_OMM_VERS" version="2.0">
<header><CREATION_DATE/><ORIGINATOR/></header><body><segment><metadata><OBJECT_NAME>ONEWEB-0588</OBJECT_NAME><OBJECT_ID>2023-004P</OBJECT_ID><CENTER_NAME>EARTH</CENTER_NAME><REF_FRAME>TEME</REF_FRAME><TIME_SYSTEM>UTC</TIME_SYSTEM><MEAN_ELEMENT_THEORY>SGP4</MEAN_ELEMENT_THEORY></metadata><data><meanElements><EPOCH>2024-10-02T11:09:18.056448</EPOCH><MEAN_MOTION>13.18686550</MEAN_MOTION><ECCENTRICITY>.0001837</ECCENTRICITY><INCLINATION>87.9055</INCLINATION><RA_OF_ASC_NODE>99.4524</RA_OF_ASC_NODE><ARG_OF_PERICENTER>70.5061</ARG_OF_PERICENTER><MEAN_ANOMALY>289.6270</MEAN_ANOMALY></meanElements><tleParameters><EPHEMERIS_TYPE>0</EPHEMERIS_TYPE><CLASSIFICATION_TYPE>U</CLASSIFICATION_TYPE><NORAD_CAT_ID>55153</NORAD_CAT_ID><ELEMENT_SET_NO>999</ELEMENT_SET_NO><REV_AT_EPOCH>8762</REV_AT_EPOCH><BSTAR>.27116E-3</BSTAR><MEAN_MOTION_DOT>.12E-5</MEAN_MOTION_DOT><MEAN_MOTION_DDOT>0</MEAN_MOTION_DDOT></tleParameters></data></segment></body></omm>
<omm id="CCSDS_OMM_VERS" version="2.0">
<header><CREATION_DATE/><ORIGINATOR/></header><body><segment><metadata><OBJECT_NAME>ONEWEB-0598</OBJECT_NAME><OBJECT_ID>2023-004Q</OBJECT_ID><CENTER_NAME>EARTH</CENTER_NAME><REF_FRAME>TEME</REF_FRAME><TIME_SYSTEM>UTC</TIME_SYSTEM><MEAN_ELEMENT_THEORY>SGP4</MEAN_ELEMENT_THEORY></metadata><data><meanElements><EPOCH>2024-10-02T08:23:35.560896</EPOCH><MEAN_MOTION>13.11417023</MEAN_MOTION><ECCENTRICITY>.0002311</ECCENTRICITY><INCLINATION>87.8936</INCLINATION><RA_OF_ASC_NODE>145.1529</RA_OF_ASC_NODE><ARG_OF_PERICENTER>75.4237</ARG_OF_PERICENTER><MEAN_ANOMALY>284.7147</MEAN_ANOMALY></meanElements><tleParameters><EPHEMERIS_TYPE>0</EPHEMERIS_TYPE><CLASSIFICATION_TYPE>U</CLASSIFICATION_TYPE><NORAD_CAT_ID>55154</NORAD_CAT_ID><ELEMENT_SET_NO>999</ELEMENT_SET_NO><REV_AT_EPOCH>8426</REV_AT_EPOCH><BSTAR>-.58466E-3</BSTAR><MEAN_MOTION_DOT>-.195E-5</MEAN_MOTION_DOT><MEAN_MOTION_DDOT>0</MEAN_MOTION_DDOT></tleParameters></data></segment></body></omm>
<omm id="CCSDS_OMM_VERS" version="2.0">
<header><CREATION_DATE/><ORIGINATOR/></header><body><segment><metadata><OBJECT_NAME>ONEWEB-0599</OBJECT_NAME><OBJECT_ID>2023-004R</OBJECT_ID><CENTER_NAME>EARTH</CENTER_NAME><REF_FRAME>TEME</REF_FRAME><TIME_SYSTEM>UTC</TIME_SYSTEM><MEAN_ELEMENT_THEORY>SGP4</MEAN_ELEMENT_THEORY></metadata><data><meanElements><EPOCH>2024-10-02T08:21:34.850592</EPOCH><MEAN_MOTION>13.17653625</MEAN_MOTION><ECCENTRICITY>.0001804</ECCENTRICITY><INCLINATION>87.9109</INCLINATION><RA_OF_ASC_NODE>129.9305</RA_OF_ASC_NODE><ARG_OF_PERICENTER>84.7503</ARG_OF_PERICENTER><MEAN_ANOMALY>275.3834</MEAN_ANOMALY></meanElements><tleParameters><EPHEMERIS_TYPE>0</EPHEMERIS_TYPE><CLASSIFICATION_TYPE>U</CLASSIFICATION_TYPE><NORAD_CAT_ID>55155</NORAD_CAT_ID><ELEMENT_SET_NO>999</ELEMENT_SET_NO><REV_AT_EPOCH>8546</REV_AT_EPOCH><BSTAR>-.22176E-2</BSTAR><MEAN_MOTION_DOT>-.848E-5</MEAN_MOTION_DOT><MEAN_MOTION_DDOT>0</MEAN_MOTION_DDOT></tleParameters></data></segment></body></omm>
<omm id="CCSDS_OMM_VERS" version="2.0">
<header><CREATION_DATE/><ORIGINATOR/></header><body><segment><metadata><OBJECT_NAME>ONEWEB-0614</OBJECT_NAME><OBJECT_ID>2023-004S</OBJECT_ID><CENTER_NAME>EARTH</CENTER_NAME><REF_FRAME>TEME</REF_FRAME><TIME_SYSTEM>UTC</TIME_SYSTEM><MEAN_ELEMENT_THEORY>SGP4</MEAN_ELEMENT_THEORY></metadata><data><meanElements><EPOCH>2024-10-02T08:16:16.366368</EPOCH><MEAN_MOTION>13.11415955</MEAN_MOTION><ECCENTRICITY>.0001388</ECCENTRICITY><INCLINATION>87.8939</INCLINATION><RA_OF_ASC_NODE>145.1592</RA_OF_ASC_NODE><ARG_OF_PERICENTER>66.5753</ARG_OF_PERICENTER><MEAN_ANOMALY>293.5520</MEAN_ANOMALY></meanElements><tleParameters><EPHEMERIS_TYPE>0</EPHEMERIS_TYPE><CLASSIFICATION_TYPE>U</CLASSIFICATION_TYPE><NORAD_CAT_ID>55156</NORAD_CAT_ID><ELEMENT_SET_NO>999</ELEMENT_SET_NO><REV_AT_EPOCH>8420</REV_AT_EPOCH><BSTAR>.27041E-3</BSTAR><MEAN_MOTION_DOT>.109E-5</MEAN_MOTION_DOT><MEAN_MOTION_DDOT>0</MEAN_MOTION_DDOT></tleParameters></data></segment></body></omm>
<omm id="CCSDS_OMM_VERS" version="2.0">
<header><CREATION_DATE/><ORIGINATOR/></header><body><segment><metadata><OBJECT_NAME>ONEWEB-0616</OBJECT_NAME><OBJECT_ID>2023-004T</OBJECT_ID><CENTER_NAME>EARTH</CENTER_NAME><REF_FRAME>TEME</REF_FRAME><TIME_SYSTEM>UTC</TIME_SYSTEM><MEAN_ELEMENT_THEORY>SGP4</MEAN_ELEMENT_THEORY></metadata><data><meanElements><EPOCH>2024-10-02T07:32:58.940448</EPOCH><MEAN_MOTION>13.17648624</MEAN_MOTION><ECCENTRICITY>.0002184</ECCENTRICITY><INCLINATION>87.9104</INCLINATION><RA_OF_ASC_NODE>129.9402</RA_OF_ASC_NODE><ARG_OF_PERICENTER>113.5509</ARG_OF_PERICENTER><MEAN_ANOMALY>246.5852</MEAN_ANOMALY></meanElements><tleParameters><EPHEMERIS_TYPE>0</EPHEMERIS_TYPE><CLASSIFICATION_TYPE>U</CLASSIFICATION_TYPE><NORAD_CAT_ID>55157</NORAD_CAT_ID><ELEMENT_SET_NO>999</ELEMENT_SET_NO><REV_AT_EPOCH>8567</REV_AT_EPOCH><BSTAR>.49439E-3</BSTAR><MEAN_MOTION_DOT>.205E-5</MEAN_MOTION_DOT><MEAN_MOTION_DDOT>0</MEAN_MOTION_DDOT></tleParameters></data></segment></body></omm>
<omm id="CCSDS_OMM_VERS" version="2.0">
<header><CREATION_DATE/><ORIGINATOR/></header><body><segment><metadata><OBJECT_NAME>ONEWEB-0617</OBJECT_NAME><OBJECT_ID>2023-004U</OBJECT_ID><CENTER_NAME>EARTH</CENTER_NAME><REF_FRAME>TEME</REF_FRAME><TIME_SYSTEM>UTC</TIME_SYSTEM><MEAN_ELEMENT_THEORY>SGP4</MEAN_ELEMENT_THEORY></metadata><data><meanElements><EPOCH>2024-10-02T07:59:11.708160</EPOCH><MEAN_MOTION>13.11415905</MEAN_MOTION><ECCENTRICITY>.0001613</ECCENTRICITY><INCLINATION>87.8935</INCLINATION><RA_OF_ASC_NODE>145.1527</RA_OF_ASC_NODE><ARG_OF_PERICENTER>62.0315</ARG_OF_PERICENTER><MEAN_ANOMALY>298.0976</MEAN_ANOMALY></meanElements><tleParameters><EPHEMERIS_TYPE>0</EPHEMERIS_TYPE><CLASSIFICATION_TYPE>U</CLASSIFICATION_TYPE><NORAD_CAT_ID>55158</NORAD_CAT_ID><ELEMENT_SET_NO>999</ELEMENT_SET_NO><REV_AT_EPOCH>8422</REV_AT_EPOCH><BSTAR>.14058E-2</BSTAR><MEAN_MOTION_DOT>.511E-5</MEAN_MOTION_DOT><MEAN_MOTION_DDOT>0</MEAN_MOTION_DDOT></tleParameters></data></segment></body></omm>
<omm id="CCSDS_OMM_VERS" version="2.0">
<header><CREATION_DATE/><ORIGINATOR/></header><body><segment><metadata><OBJECT_NAME>ONEWEB-0618</OBJECT_NAME><OBJECT_ID>2023-004V</OBJECT_ID><CENTER_NAME>EARTH</CENTER_NAME><REF_FRAME>TEME</REF_FRAME><TIME_SYSTEM>UTC</TIME_SYSTEM><MEAN_ELEMENT_THEORY>SGP4</MEAN_ELEMENT_THEORY></metadata><data><meanElements><EPOCH>2024-10-02T09:37:12.290880</EPOCH><MEAN_MOTION>14.27211431</MEAN_MOTION><ECCENTRICITY>.0011303</ECCENTRICITY><INCLINATION>86.9063</INCLINATION><RA_OF_ASC_NODE>55.2718</RA_OF_ASC_NODE><ARG_OF_PERICENTER>301.7210</ARG_OF_PERICENTER><MEAN_ANOMALY>58.2880</MEAN_ANOMALY></meanElements><tleParameters><EPHEMERIS_TYPE>0</EPHEMERIS_TYPE><CLASSIFICATION_TYPE>U</CLASSIFICATION_TYPE><NORAD_CAT_ID>55159</NORAD_CAT_ID><ELEMENT_SET_NO>999</ELEMENT_SET_NO><REV_AT_EPOCH>9063</REV_AT_EPOCH><BSTAR>.38207E-2</BSTAR><MEAN_MOTION_DOT>.936E-4</MEAN_MOTION_DOT><MEAN_MOTION_DDOT>0</MEAN_MOTION_DDOT></tleParameters></data></segment></body></omm>
<omm id="CCSDS_OMM_VERS" version="2.0">
<header><CREATION_DATE/><ORIGINATOR/></header><body><segment><metadata><OBJECT_NAME>ONEWEB-0619</OBJECT_NAME><OBJECT_ID>2023-004W</OBJECT_ID><CENTER_NAME>EARTH</CENTER_NAME><REF_FRAME>TEME</REF_FRAME><TIME_SYSTEM>UTC</TIME_SYSTEM><MEAN_ELEMENT_THEORY>SGP4</MEAN_ELEMENT_THEORY></metadata><data><meanElements><EPOCH>2024-10-02T08:19:10.038144</EPOCH><MEAN_MOTION>13.17650247</MEAN_MOTION><ECCENTRICITY>.000111</ECCENTRICITY><INCLINATION>87.9106</INCLINATION><RA_OF_ASC_NODE>129.9111</RA_OF_ASC_NODE><ARG_OF_PERICENTER>88.4447</ARG_OF_PERICENTER><MEAN_ANOMALY>271.6811</MEAN_ANOMALY></meanElements><tleParameters><EPHEMERIS_TYPE>0</EPHEMERIS_TYPE><CLASSIFICATION_TYPE>U</CLASSIFICATION_TYPE><NORAD_CAT_ID>55160</NORAD_CAT_ID><ELEMENT_SET_NO>999</ELEMENT_SET_NO><REV_AT_EPOCH>8557</REV_AT_EPOCH><BSTAR>.11005E-3</BSTAR><MEAN_MOTION_DOT>.56E-6</MEAN_MOTION_DOT><MEAN_MOTION_DDOT>0</MEAN_MOTION_DDOT></tleParameters></data></segment></body></omm>

</ndm>
